BEESAT-4                
1 41619U 16040W   21206.10776468  .00003263  00000-0  13063-3 0  9992
2 41619  97.2670 261.1427 0010315 188.5764 171.5300 15.25714096270754
CAS-2T & KS-1Q          
1 41847U 16066G   21206.39258388  .00000283  00000-0  51640-4 0  9993
2 41847  98.5988 265.6752 0366342 107.1221 257.0422 14.38215465247334
NAYIF-1 (EO-88)         
1 42017U 17008BX  21206.40523377  .00003211  00000-0  11877-3 0  9996
2 42017  97.3139 273.3266 0005240 351.5373   8.5777 15.28400251247055
ZHUHAI-1 02 (CAS-4B)    
1 42759U 17034B   21206.59263098  .00000702  00000-0  55464-4 0  9992
2 42759  43.0189 331.3969 0008080  33.4373  77.9799 15.10280711226911
ZHUHAI-1 01 (CAS-4A)    
1 42761U 17034D   21206.51140852  .00000623  00000-0  50619-4 0  9998
2 42761  43.0188 330.8698 0008490  34.4673  55.9731 15.10367966226904
MAX VALIER SAT          
1 42778U 17036P   21206.39413781  .00002130  00000-0  91307-4 0  9992
2 42778  97.2521 253.7581 0013077  49.2323 311.0048 15.23745196227065
RADFXSAT (FOX-1B)       
1 43017U 17073E   21206.47578306  .00000674  00000-0  57059-4 0  9991
2 43017  97.7033 108.9549 0254734 176.0075 184.3254 14.79610708198742
FOX-1D (AO-92)          
1 43137U 18004AC  21206.51290484  .00002336  00000-0  95239-4 0  9991
2 43137  97.4054 280.1559 0010445  80.2614 279.9803 15.25405333196469
DIWATA-2B               
1 43678U 18084H   21206.61981683 -.00000267  00000-0 -20750-4 0  9997
2 43678  97.9284 332.1056 0008677 288.6591  71.3686 14.91764269149123
ES'HAIL 2               
1 43700U 18090A   21206.31883914  .00000127  00000-0  00000-0 0  9990
2 43700   0.0185  88.8314 0001826  63.3397 291.6239  1.00272919  9743
FOX-1CLIFF (AO-95)      
1 43770U 18099N   21206.45797725  .00000593  00000-0  58831-4 0  9991
2 43770  97.6631 275.8034 0013032 292.5533  67.4309 14.95364851144130
ITASAT 1                
1 43786U 18099AE  21206.43669730  .00000023  00000-0  72253-5 0  9993
2 43786  97.6655 276.4873 0013650 285.5284  74.4430 14.95656121144162
JY1SAT (JO-97)          
1 43803U 18099AX  21206.46108706  .00000696  00000-0  67264-4 0  9998
2 43803  97.6612 276.2585 0013563 284.3712  75.6003 14.95907928144173
UWE-4                   
1 43880U 18111E   21206.48606631  .00001111  00000-0  10172-3 0  9998
2 43880  97.6839 113.5669 0011592 344.6520  15.4349 14.96916277140777
NEXUS (FO-99)           
1 43937U 19003F   21206.42390738  .00002525  00000-0  10057-3 0  9996
2 43937  97.1733 248.0826 0021546 235.0387 124.8829 15.25920416140053
PSAT2 (NO-104)          
1 44354U 19036R   21206.46789355  .00021620  00000-0  28173-3 0  9992
2 44354  28.5276 233.3656 0320024 328.6050  29.5797 15.14902505114743
BRICSAT2 (NO-103)       
1 44355U 19036S   21206.27249085  .00047760 -53363-5  48597-3 0  9994
2 44355  28.5247 183.1218 0251881  50.5194 311.7399 15.32810044115237
JAISAT-1                
1 44419U 19038F   21206.38110194  .00001633  00000-0  93536-4 0  9994
2 44419  97.5906 170.9501 0020915 176.9188 183.2176 15.13875935113538
DUCHIFAT-3              
1 44854U 19089C   21206.48189846  .00000505  00000-0  46689-4 0  9998
2 44854  36.9657 235.7362 0007216  81.3502 278.8061 14.99547493 88818
CAS-6 (TO-108)          
1 44881U 19093C   21206.56105905  .00000082  00000-0  17261-4 0  9990
2 44881  97.9240 284.9744 0015547 163.9691 196.2017 14.81465356 86376
RS-44 & BREEZE-KM R/B   
1 44909U 19096E   21206.38927518  .00000010  00000-0 -53623-5 0  9991
2 44909  82.5200  87.6090 0217673   4.7187 355.5897 12.79710834 73675
ORBITAL FACTORY 2 (OF-2)
1 45113U 19071C   21206.40367878  .00003494  00000-0  10873-3 0  9998
2 45113  51.6403 213.4689 0012409  70.5870 289.6453 15.36041427 83002
HUSKYSAT-1 (HO-107)     
1 45119U 19071J   21206.54477561  .00004050  00000-0  12426-3 0  9995
2 45119  51.6400 212.1552 0011809  67.8988 292.3248 15.36050118 83024
BY70-2                  
1 45857U 20042B   21206.58058126  .00001375  00000-0  20158-3 0  9998
2 45857  97.9834 281.9334 0012916  93.0747 267.1972 14.77136461 57174
SALSAT                  
1 46495U 20068K   21206.59639490 -.00000062  00000-0  48984-7 0  9999
2 46495  97.6932 143.8699 0015707 308.4907  51.4889 15.03491670 45063
BY70-3                  
1 46839U 20079N   21206.55174867  .00004835  00000-0  14939-3 0  9991
2 46839  97.2398 279.6549 0008923  74.7726  40.5645 15.33959829 40043
RADFXSAT-2 (AO-109)     
1 47311U 21002C   21206.40202380  .00002013  00000-0  98362-4 0  9999
2 47311  60.6851 149.1269 0039975  67.6393 292.8922 15.21771814 28644
UVSQ-SAT                
1 47438U 21006AB  21206.14047380  .00001336  00000-0  78790-4 0  9991
2 47438  97.4852 266.6868 0011858 334.8405  25.2247 15.13228616 27753
DIY-1 (ARDUIQUBE)       
1 47963U 21022AH  21206.46604684  .00003167  00000-0  21235-3 0  9998
2 47963  97.5556 108.1260 0019505 169.7398 190.4232 15.07427217 17622
